SBIRS GEO-1 (USA 230)   
1 37481U 11019A   26072.15249010  .00000102  00000+0  00000+0 0  9995
2 37481   4.3256  53.0987 0002318 296.7572 287.6177  1.00272453 54437
SBIRS GEO-2 (USA 241)   
1 39120U 13011A   26072.41760460 -.00000284  00000+0  00000+0 0  9999
2 39120   4.2817  52.3935 0002280 297.8022 281.3772  1.00271486 47570
JILIN-1 03              
1 41914U 17002B   26072.98768340  .00015700  00000+0  40647-3 0  9997
2 41914  97.1997  81.5648 0007394 140.8128 219.3654 15.39113047507200
SBIRS GEO-4 (USA 273)   
1 41937U 17004A   26072.83681841  .00000124  00000+0  00000+0 0  9997
2 41937   2.0648  40.3594 0002291 316.9988 136.2516  1.00272716 33645
JILIN-1 04              
1 43022U 17074A   26072.96882410  .00017343  00000+0  43830-3 0  9993
2 43022  97.4764 180.2825 0004764 164.4367 195.7026 15.39855409459601
JILIN-1 05              
1 43023U 17074B   26072.96257091  .00007725  00000+0  24848-3 0  9996
2 43023  97.4781 177.9842 0004951 190.8207 169.2929 15.32516093459410
SBIRS GEO-3 (USA 282)   
1 43162U 18009A   26072.82378165  .00000129  00000+0  00000+0 0  9991
2 43162   2.1264   7.3560 0002207 350.0556 311.1915  1.00272787 29881
JILIN-1 GAOFEN 3E       
1 46457U 20065D   26072.95008435  .00047718  00000+0  72800-3 0  9996
2 46457  97.2426 123.9773 0015199 150.3093 209.9027 15.54182685304928
JILIN-1 GAOFEN 3F       
1 46458U 20065E   26072.91175606  .00043429  00000+0  70215-3 0  9991
2 46458  97.2381 121.6350 0016742 139.6856 220.5642 15.52566429304884
JILIN-1 GAOFEN 3G       
1 46459U 20065F   26072.95631029  .00058833  00000+0  76823-3 0  9998
2 46459  97.2458 127.2844 0012688  52.8372 307.4041 15.58394288305050
JILIN-1 GAOFEN 3H       
1 46460U 20065G   26072.91307042  .00051057  00000+0  71079-3 0  9990
2 46460  97.2402 123.9830 0006484 347.5654  12.5441 15.56778448305019
SBIRS GEO-5 (USA 315)   
1 48618U 21042A   26072.84464428 -.00000266  00000+0  00000+0 0  9996
2 48618   5.2257 328.3918 0001187  28.3379 212.5906  1.00271905 17810
JILIN-1 GAOFEN 03D15    
1 51839U 22019R   26072.95112836  .00133815  00000+0  10919-2 0  9994
2 51839  97.3687 164.3937 0003813 164.6980 195.4398 15.70184009225036
SBIRS GEO-6 (USA 336)   
1 53355U 22092A   26072.95421557 -.00000292  00000+0  00000+0 0  9993
2 53355   3.4222 315.9540 0002092  39.3161 298.8075  1.00271656 13279
