[ {"OBJECT_NAME": "JILIN-1 GAOFEN 3E", "NORAD_CAT_ID": 46457, "MEAN_MOTION": 15.54182685, "ECCENTRICITY": 0.0015199, "INCLINATION": 97.2426, "RA_OF_ASC_NODE": 123.9773, "ARG_OF_PERICENTER": 150.3093, "MEAN_ANOMALY": 209.9027, "BSTAR": 0.000728, "EPOCH": "2026-03-13T22:48:07"}, {"OBJECT_NAME": "JILIN-1 03", "NORAD_CAT_ID": 41914, "MEAN_MOTION": 15.39113047, "ECCENTRICITY": 0.0007394, "INCLINATION": 97.1997, "RA_OF_ASC_NODE": 81.5648, "ARG_OF_PERICENTER": 140.8128, "MEAN_ANOMALY": 219.3654, "BSTAR": 0.00040647000000000003, "EPOCH": "2026-03-13T23:42:15"}, {"OBJECT_NAME": "JILIN-1 GAOFEN 03D15", "NORAD_CAT_ID": 51839, "MEAN_MOTION": 15.70184009, "ECCENTRICITY": 0.0003813, "INCLINATION": 97.3687, "RA_OF_ASC_NODE": 164.3937, "ARG_OF_PERICENTER": 164.698, "MEAN_ANOMALY": 195.4398, "BSTAR": 0.0010919, "EPOCH": "2026-03-13T22:49:37"}, {"OBJECT_NAME": "JILIN-1 GAOFEN 3F", "NORAD_CAT_ID": 46458, "MEAN_MOTION": 15.52566429, "ECCENTRICITY": 0.0016742, "INCLINATION": 97.2381, "RA_OF_ASC_NODE": 121.635, "ARG_OF_PERICENTER": 139.6856, "MEAN_ANOMALY": 220.5642, "BSTAR": 0.00070215, "EPOCH": "2026-03-13T21:52:55"}, {"OBJECT_NAME": "JILIN-1 GAOFEN 3G", "NORAD_CAT_ID": 46459, "MEAN_MOTION": 15.58394288, "ECCENTRICITY": 0.0012688, "INCLINATION": 97.2458, "RA_OF_ASC_NODE": 127.2844, "ARG_OF_PERICENTER": 52.8372, "MEAN_ANOMALY": 307.4041, "BSTAR": 0.00076823, "EPOCH": "2026-03-13T22:57:05"}, {"OBJECT_NAME": "JILIN-1 04", "NORAD_CAT_ID": 43022, "MEAN_MOTION": 15.39855409, "ECCENTRICITY": 0.0004764, "INCLINATION": 97.4764, "RA_OF_ASC_NODE": 180.2825, "ARG_OF_PERICENTER": 164.4367, "MEAN_ANOMALY": 195.7026, "BSTAR": 0.00043830000000000003, "EPOCH": "2026-03-13T23:15:06"}, {"OBJECT_NAME": "JILIN-1 GAOFEN 3H", "NORAD_CAT_ID": 46460, "MEAN_MOTION": 15.56778448, "ECCENTRICITY": 0.0006484, "INCLINATION": 97.2402, "RA_OF_ASC_NODE": 123.983, "ARG_OF_PERICENTER": 347.5654, "MEAN_ANOMALY": 12.5441, "BSTAR": 0.0007107900000000001, "EPOCH": "2026-03-13T21:54:49"}, {"OBJECT_NAME": "JILIN-1 05", "NORAD_CAT_ID": 43023, "MEAN_MOTION": 15.32516093, "ECCENTRICITY": 0.0004951, "INCLINATION": 97.4781, "RA_OF_ASC_NODE": 177.9842, "ARG_OF_PERICENTER": 190.8207, "MEAN_ANOMALY": 169.2929, "BSTAR": 0.00024848000000000003, "EPOCH": "2026-03-13T23:06:06"}, {"OBJECT_NAME": "SBIRS GEO-3 (USA 282)", "NORAD_CAT_ID": 43162, "MEAN_MOTION": 1.00272787, "ECCENTRICITY": 0.0002207, "INCLINATION": 2.1264, "RA_OF_ASC_NODE": 7.356, "ARG_OF_PERICENTER": 350.0556, "MEAN_ANOMALY": 311.1915, "BSTAR": 0.0, "EPOCH": "2026-03-13T19:46:14"}, {"OBJECT_NAME": "SBIRS GEO-4 (USA 273)", "NORAD_CAT_ID": 41937, "MEAN_MOTION": 1.00272716, "ECCENTRICITY": 0.0002291, "INCLINATION": 2.0648, "RA_OF_ASC_NODE": 40.3594, "ARG_OF_PERICENTER": 316.9988, "MEAN_ANOMALY": 136.2516, "BSTAR": 0.0, "EPOCH": "2026-03-13T20:05:01"}, {"OBJECT_NAME": "SBIRS GEO-5 (USA 315)", "NORAD_CAT_ID": 48618, "MEAN_MOTION": 1.00271905, "ECCENTRICITY": 0.0001187, "INCLINATION": 5.2257, "RA_OF_ASC_NODE": 328.3918, "ARG_OF_PERICENTER": 28.3379, "MEAN_ANOMALY": 212.5906, "BSTAR": 0.0, "EPOCH": "2026-03-13T20:16:17"}, {"OBJECT_NAME": "SBIRS GEO-6 (USA 336)", "NORAD_CAT_ID": 53355, "MEAN_MOTION": 1.00271656, "ECCENTRICITY": 0.0002092, "INCLINATION": 3.4222, "RA_OF_ASC_NODE": 315.954, "ARG_OF_PERICENTER": 39.3161, "MEAN_ANOMALY": 298.8075, "BSTAR": 0.0, "EPOCH": "2026-03-13T22:54:04"}, {"OBJECT_NAME": "SBIRS GEO-1 (USA 230)", "NORAD_CAT_ID": 37481, "MEAN_MOTION": 1.00272453, "ECCENTRICITY": 0.0002318, "INCLINATION": 4.3256, "RA_OF_ASC_NODE": 53.0987, "ARG_OF_PERICENTER": 296.7572, "MEAN_ANOMALY": 287.6177, "BSTAR": 0.0, "EPOCH": "2026-03-13T03:39:35"}, {"OBJECT_NAME": "SBIRS GEO-2 (USA 241)", "NORAD_CAT_ID": 39120, "MEAN_MOTION": 1.00271486, "ECCENTRICITY": 0.000228, "INCLINATION": 4.2817, "RA_OF_ASC_NODE": 52.3935, "ARG_OF_PERICENTER": 297.8022, "MEAN_ANOMALY": 281.3772, "BSTAR": 0.0, "EPOCH": "2026-03-13T10:01:21"}]